{
  "name": "SATGUS",
  "line1": "1 62713U 25009DJ  25215.17618014  .00006023  00000+0  54399-3 0  9991",
  "line2": "2 62713  97.7333 294.8706 0003993 112.8528 247.3115 14.95848410 29930",
  "fetched_at": "2025-08-04T00:21:44.576574+00:00"
}